OPTICUBE 04             
1 41851U 16067D   19035.84410863 -.00000348  00000-0 -25144-4 0  9998
2 41851  97.9162 131.8782 0010028 108.3012 251.9301 14.96756062121899
AEROCUBE 8D             
1 41852U 16067E   19036.50587952 -.00000283  00000-0 -19493-4 0  9995
2 41852  97.9176 132.3751 0010896 106.5085 253.7333 14.96635387121970
AEROCUBE 8C             
1 41853U 16067F   19035.79017330  .00000212  00000-0  23882-4 0  9991
2 41853  97.9169 131.5972 0011259 111.0988 249.1437 14.96595333121864
PROMETHEUS 2-1          
1 41854U 16067G   19035.77496652 -.00000122  00000-0 -53145-5 0  9996
2 41854  97.9182 131.6615 0011484 109.9625 250.2834 14.96773372121864
PROMETHEUS 2-3          
1 41855U 16067H   19036.71358827  .00000029  00000-0  78739-5 0  9993
2 41855  97.9181 132.6224 0011633 107.9483 252.3007 14.96774561122000
INS-1B                  
1 41954U 17008G   19036.84443283  .00001218  00000-0  53854-4 0  9995
2 41954  97.4175 103.5392 0007778 248.8145 111.2262 15.23592812109577
BGUSAT                  
1 41999U 17008BD  19036.15441080  .00002236  00000-0  91050-4 0  9992
2 41999  97.4237 104.6946 0006601 268.9752  91.0730 15.25532348108937
DIDO-2                  
1 42000U 17008BE  19035.84851425  .00000972  00000-0  43513-4 0  9995
2 42000  97.4192 103.0773 0006938 276.1086  83.9360 15.23640207108825
PEASSS                  
1 42015U 17008BV  19036.41886051  .00001259  00000-0  54064-4 0  9990
2 42015  97.4195 104.4000 0004834 282.1378  77.9318 15.24539275109444
AL-FARABI 1             
1 42016U 17008BW  19036.14112249  .00001528  00000-0  63970-4 0  9997
2 42016  97.4207 104.5224 0004699 282.5843  77.4869 15.25085724109541
NAYIF-1 (EO-88)         
1 42017U 17008BX  19036.13135289  .00001545  00000-0  64608-4 0  9994
2 42017  97.4203 104.5215 0004679 282.9044  77.1671 15.25114746109560
HAVELSAT                
1 42700U 98067LH  19036.55871528  .00238048  35268-4  42596-3 0  9995
2 42700  51.6189 223.4444 0002602 251.4723 108.6005 16.01255614 98943
CXBN-2                  
1 42704U 98067LM  19036.53267583  .00285517  45610-4  52988-3 0  9998
2 42704  51.6230 225.6182 0003289 262.8433  97.2203 16.00582945 98833
PHOENIX                 
1 42706U 98067LP  19036.64644507  .00048518  00000-0  21882-3 0  9994
2 42706  51.6249 235.5685 0000542 253.4985 106.5958 15.83523741 98706
QBEE50-LTU-OC           
1 42708U 98067LR  19036.59037560  .00243153  36450-4  42580-3 0  9997
2 42708  51.6188 224.4334 0003634 262.4952  97.5645 16.01613528 98792
ALTAIR PATHFINDER       
1 42711U 98067LS  19036.65075129  .00019140  00000-0  14526-3 0  9995
2 42711  51.6323 255.3314 0002085 357.8484   2.2505 15.72368208 98108
SHARC                   
1 42712U 98067LT  19036.59065138  .00057230  00000-0  29098-3 0  9990
2 42712  51.6300 251.9399 0000606 188.9472 171.1519 15.80878272 98383
ZA-AEROSAT              
1 42713U 98067LU  19036.58129771  .00042934  00000-0  21062-3 0  9992
2 42713  51.6319 241.2148 0000669 320.6277  39.4676 15.81778101 98285
CSUNSAT 1               
1 42715U 98067LW  19036.59279857  .00054796  00000-0  23555-3 0  9994
2 42715  51.6287 238.2662 0001166 321.7943  38.2978 15.84485656 98323
SPACECUBE               
1 42717U 98067LY  19036.58809550  .00226275  32740-4  41987-3 0  9996
2 42717  51.6139 225.0494 0002842 252.5906 107.4793 16.00640882 97865
NJUST-1                 
1 42722U 98067MB  19036.64605095  .00045361  00000-0  25455-3 0  9994
2 42722  51.6369 245.2508 0002238  89.0938  18.7637 15.78803828 97308
LILACSAT-1              
1 42725U 98067ME  19036.58597395  .00106299  15320-4  33866-3 0  9991
2 42725  51.6311 233.4394 0000417 157.3621 302.0461 15.91035054 97368
NSIGHT-1                
1 42726U 98067MF  19036.63488364  .00013946  00000-0  13758-3 0  9992
2 42726  51.6368 266.6640 0004697  38.4554 321.6775 15.66231246 96931
SNUSAT-1B               
1 42727U 98067MG  19036.60929947  .00100924  00000-0  32289-3 0  9990
2 42727  51.6259 233.7012 0001332 325.4856  34.6063 15.90253833 97324
SNUSAT-1                
1 42733U 98067MN  19036.64088289  .00145208  19378-4  37354-3 0  9990
2 42733  51.6225 229.3442 0002186 288.5649  71.5121 15.94936132 97272
BEEAGLESAT              
1 42736U 98067MR  19036.62856578  .00059635  00000-0  24113-3 0  9990
2 42736  51.6272 236.9210 0001789  59.8981 300.2200 15.85726755 97234
UCLSAT                  
1 42765U 17036A   19035.86151455  .00001267  00000-0  57778-4 0  9998
2 42765  97.3707  96.6203 0011115 348.5195  11.5786 15.22402903 90105
LITUANICASAT-2          
1 42768U 17036D   19036.49257533  .00002093  00000-0  93844-4 0  9997
2 42768  97.3733  96.7959 0014391 333.6527  26.3975 15.22249922 90046
AALTO-1                 
1 42775U 17036L   19036.13149431  .00000806  00000-0  39240-4 0  9993
2 42775  97.3696  95.9276 0013292 335.0795  24.9798 15.21108819 89905
URSA MAIOR              
1 42776U 17036M   19035.90577687  .00000866  00000-0  41826-4 0  9995
2 42776  97.3704  95.8137 0013102 335.9868  24.0756 15.21225065 89875
COMPASS 2               
1 42777U 17036N   19036.78686731  .00001548  00000-0  69814-4 0  9999
2 42777  97.3734  97.5166 0011809 335.3117  24.7553 15.22448583 90049
DIAMOND RED             
1 42783U 17036U   19036.58462923  .00000936  00000-0  44065-4 0  9990
2 42783  97.3707  97.0339 0011682 345.8914  14.1994 15.21918069 90001
PEGASUS                 
1 42784U 17036V   19036.58774285  .00001054  00000-0  48872-4 0  9990
2 42784  97.3710  97.1952 0011582 345.7620  14.3288 15.22176539 90018
DIAMOND GREEN           
1 42785U 17036W   19035.92593095  .00001005  00000-0  47106-4 0  9991
2 42785  97.3710  96.4084 0011669 349.0291  11.0689 15.21916539 89977
DIAMOND BLUE            
1 42786U 17036X   19036.58242416  .00000921  00000-0  43404-4 0  9996
2 42786  97.3709  97.0511 0011442 346.9826  13.1113 15.21918095 89993
NUDTSAT                 
1 42787U 17036Y   19036.20290742  .00001244  00000-0  55837-4 0  9993
2 42787  97.3745  97.2938 0012306 345.8459  14.2433 15.22979582 89827
SUCHAI                  
1 42788U 17036Z   19036.10271100  .00001382  00000-0  62511-4 0  9990
2 42788  97.3714  96.9343 0011193 347.2357  12.8594 15.22532995 90025
SKCUBE                  
1 42789U 17036AA  19035.71648205  .00001259  00000-0  57350-4 0  9999
2 42789  97.3711  96.5222 0011095 348.8323  11.2666 15.22456299 89883
VZLUSAT-1               
1 42790U 17036AB  19035.86158942  .00001677  00000-0  74237-4 0  9998
2 42790  97.3722  96.9617 0010649 348.0712  12.0271 15.22993385 89925
ROBUSTA-1B              
1 42792U 17036AD  19036.58171853  .00001224  00000-0  55585-4 0  9999
2 42792  97.3710  97.4851 0010607 346.8260  13.2698 15.22618737 90033
CICERO 6                
1 42793U 17036AE  19036.47975774  .00000940  00000-0  43751-4 0  9998
2 42793  97.3696  97.2684 0009924 349.4532  10.6495 15.22320847 90083
D-SAT                   
1 42794U 17036AF  19036.12782300  .00000199  00000-0  22982-4 0  9991
2 42794  97.5601  86.5656 0125698 226.2411 132.8352 14.91014208 88438
TOKI                    
1 42820U 98067MU  19035.86022406  .00060240  00000-0  26316-3 0  9995
2 42820  51.6290 245.3456 0000773 246.8057 113.2865 15.84108156 90519
MAZAALAI (NUMSAT-1)     
1 42822U 98067MW  19036.53857928  .00069990  00000-0  31925-3 0  9990
2 42822  51.6299 243.1615 0000563 305.5391  54.5559 15.83134542 90585
BRAC ONNESHA            
1 42823U 98067MX  19036.56199412  .00056237  00000-0  25082-3 0  9998
2 42823  51.6274 242.5608 0001604 342.8535  17.2414 15.83697626 90599
NIGERIAEDUSAT-1         
1 42824U 98067MY  19036.58193806  .00050832  00000-0  23579-3 0  9996
2 42824  51.6310 243.5123 0001622   8.3950 351.7080 15.82905502 90576
CORVUS BC2              
1 42846U 17042X   19035.94510832  .00000170  00000-0  22056-4 0  9995
2 42846  97.5808 295.1573 0010624 134.5989 225.6099 14.91917686 85072
CORVUS BC1              
1 42847U 17042Y   19035.77316672  .00000069  00000-0  12103-4 0  9992
2 42847  97.5809 295.0766 0010291 134.3048 225.9017 14.92017155 85044
SILU-1 (SILKROAD 1)     
1 42903U 17021F   19036.86661917  .00097060  11634-4  30357-3 0  9994
2 42903  42.7735 337.0492 0016142 179.3540 280.0508 15.90820332 86874
MIRATA                  
1 43015U 17073C   19036.45660940  .00000835  00000-0  71476-4 0  9999
2 43015  97.7178 322.9011 0255181 231.7107 126.0908 14.78683156 65607
MAKERSAT 0              
1 43016U 17073D   19036.31718724  .00000542  00000-0  48352-4 0  9991
2 43016  97.7210 322.9499 0257023 232.3403 125.4244 14.78524010 65573
ASTERIA                 
1 43020U 98067NH  19036.65056025  .00014126  00000-0  14375-3 0  9994
2 43020  51.6412 276.6393 0001595 345.0152  15.0796 15.65438959 68980
DELLINGR (RBLE)         
1 43021U 98067NJ  19036.76282722  .00006926  00000-0  87501-4 0  9993
2 43021  51.6387 282.5633 0001553 333.0506  27.0407 15.60814810 68913
OSIRIS-3U               
1 43027U 98067NL  19036.67112673  .00184025  23868-4  53393-3 0  9995
2 43027  51.6313 251.6526 0003530 236.8527 123.2142 15.92567709 69199
AEROCUBE 7B             
1 43042U 17071F   19035.95553655  .00003137  00000-0  86451-4 0  9992
2 43042  51.6396 346.3191 0005233  37.4985 322.6364 15.40303398 65464
AEROCUBE 7C             
1 43043U 17071G   19036.86397904  .00003284  00000-0  90034-4 0  9992
2 43043  51.6400 341.8969 0005367  42.0092 318.1303 15.40308341 65571
CHEFSAT                 
1 43044U 17071H   19035.95047967  .00005117  00000-0  12660-3 0  9998
2 43044  51.6402 343.3709 0005197  39.2057 320.9304 15.42221590 65476
ASGARDIA 1              
1 43049U 17071N   19036.11287351  .00003408  00000-0  92728-4 0  9990
2 43049  51.6405 345.1486 0003035  59.8463 300.2822 15.40412566 65451
ISARA                   
1 43050U 17071P   19036.44566110  .00006739  00000-0  16574-3 0  9995
2 43050  51.6397 341.4014 0002901  59.7231 300.4041 15.41842610 65534
